STARLINK-36070          
1 66864U 25281S   25356.58335648 -.01959819  00000+0 -21305-1 0  9996
2 66864  43.0005  62.2601 0001387 287.9534 116.6465 15.65787194  3003
STARLINK-36117          
1 66865U 25281T   25356.58335648 -.01956002  00000+0 -21258-1 0  9995
2 66865  43.0008  62.2512 0001340 289.4046 119.0269 15.65786745  2977
STARLINK-36126          
1 66866U 25281U   25356.83335647 -.02016348  00000+0 -22947-1 0  9990
2 66866  43.0003  60.7487 0001542 283.0301  97.7398 15.64749657  3049
STARLINK-36101          
1 66867U 25281V   25356.83335647 -.02009541  00000+0 -22863-1 0  9995
2 66867  43.0004  60.7441 0001424 281.8375 100.8492 15.64745887  2857
STARLINK-36108          
1 66868U 25281W   25356.83335647 -.02010249  00000+0 -22872-1 0  9993
2 66868  43.0005  60.7389 0001461 282.0308 102.5725 15.64746600  2852
STARLINK-36092          
1 66869U 25281X   25356.83335647 -.02023332  00000+0 -23034-1 0  9992
2 66869  43.0007  60.7342 0001432 283.1361 103.3828 15.64754958  3043
STARLINK-36114          
1 66870U 25281Y   25356.83335647 -.02008930  00000+0 -22856-1 0  9992
2 66870  43.0005  60.7292 0001515 280.7871 107.6527 15.64744818  2910
STARLINK-36095          
1 66871U 25281Z   25356.83335647 -.02014327  00000+0 -22923-1 0  9995
2 66871  43.0006  60.7240 0001387 281.6029 108.7515 15.64749223  3046
STARLINK-36082          
1 66872U 25281AA  25356.83335647 -.02023265  00000+0 -23033-1 0  9990
2 66872  43.0006  60.7192 0001447 283.3443 108.9262 15.64754910  2914
STARLINK-36128          
1 66873U 25281AB  25356.83335647 -.02010401  00000+0 -22874-1 0  9991
2 66873  43.0003  60.7041 0001431 282.0007 116.0230 15.64746227  3042
STARLINK-36129          
1 66874U 25281AC  25356.83335647 -.02010017  00000+0 -22869-1 0  9999
2 66874  43.0005  60.7141 0001442 281.6227 112.5672 15.64745910  3046
STARLINK-36053          
1 66875U 25281AD  25356.83335647 -.02022790  00000+0 -23028-1 0  9999
2 66875  43.0005  60.6984 0001436 285.7089 114.2309 15.64753843  3045
STARLINK-35702          
1 66876U 25281AE  25356.83335647 -.02023560  00000+0 -23036-1 0  9995
2 66876  43.0004  60.7092 0001462 285.2921 110.8113 15.64755470  3048
ZQ-3 R/B                
1 66877U 25282A   25356.47499263  .01038407  78266-5  18257-3 0  9991
2 66877  56.9489  19.8433 0697137 237.0909 116.1203 14.79282387  2825
STARLINK-35866          
1 66878U 25283A   25356.83335647 -.01945084  00000+0 -16360-1 0  9994
2 66878  53.1588  23.3289 0001297  75.4136  35.1193 15.72140949  4052
STARLINK-35749          
1 66879U 25283B   25356.83335647 -.01957716  00000+0 -16476-1 0  9998
2 66879  53.1589  23.3209 0000943  84.2391  30.1247 15.72151195  4054
STARLINK-35844          
1 66880U 25283C   25356.83335647 -.01956485  00000+0 -16463-1 0  9998
2 66880  53.1587  23.3253 0001306  77.1257  35.3219 15.72148746  4053
STARLINK-35860          
1 66881U 25283D   25356.83335647 -.01949597  00000+0 -16404-1 0  9990
2 66881  53.1588  23.3167 0000946  79.5052  36.7812 15.72143019  4059
STARLINK-35912          
1 66882U 25283E   25356.83335647 -.01947076  00000+0 -16380-1 0  9994
2 66882  53.1587  23.3140 0001297  69.7661  48.4367 15.72140305  4057
STARLINK-35947          
1 66883U 25283F   25356.83335647 -.01943555  00000+0 -16349-1 0  9998
2 66883  53.1588  23.3095 0001222  72.9050  47.2184 15.72137026  4100
STARLINK-36057          
1 66884U 25283G   25356.83335647 -.01940906  00000+0 -16323-1 0  9998
2 66884  53.1586  23.3009 0001274  83.1670  40.7864 15.72137514  4052
STARLINK-35954          
1 66885U 25283H   25356.83335647 -.01957762  00000+0 -16476-1 0  9996
2 66885  53.1588  23.3052 0001260  73.7245  48.3099 15.72148372  4059
STARLINK-35900          
1 66886U 25283J   25356.83335647 -.02133281  00000+0 -18077-1 0  9999
2 66886  53.1588  23.2968 0001217 102.8770  22.9747 15.72265515  4051
STARLINK-35925          
1 66887U 25283K   25356.83335647 -.01956816  00000+0 -16467-1 0  9997
2 66887  53.1587  23.2930 0001250  68.9350  58.8477 15.72148704  4051
STARLINK-35919          
1 66888U 25283L   25356.83335647 -.01946425  00000+0 -16374-1 0  9990
2 66888  53.1590  23.2886 0001352  73.0613  56.6437 15.72139600  4055
STARLINK-35852          
1 66889U 25283M   25356.83335647 -.01956041  00000+0 -16459-1 0  9990
2 66889  53.1589  23.2841 0001398  76.4020  55.2153 15.72147537  4052
STARLINK-35885          
1 66890U 25283N   25356.83335647 -.01960652  00000+0 -16501-1 0  9993
2 66890  53.1586  23.2806 0001220  89.3564  44.1745 15.72152780  4052
STARLINK-35855          
1 66891U 25283P   25356.83335647 -.01947757  00000+0 -16386-1 0  9996
2 66891  53.1588  23.2764 0001277  87.8751  47.5807 15.72140814  4052
STARLINK-35883          
1 66892U 25283Q   25356.83335647 -.01954201  00000+0 -16442-1 0  9992
2 66892  53.1589  23.2719 0001273  80.6320  56.7350 15.72147988  3999
STARLINK-36033          
1 66893U 25283R   25356.83335647 -.01945671  00000+0 -16368-1 0  9991
2 66893  53.1587  23.2680 0001261  73.1015  66.1891 15.72138739  4057
STARLINK-35718          
1 66894U 25283S   25356.83335647 -.01954562  00000+0 -16445-1 0  9997
2 66894  53.1587  23.2649 0001390  74.6655  66.5332 15.72148228  4050
STARLINK-35971          
1 66895U 25283T   25356.83335647 -.01960652  00000+0 -16504-1 0  9991
2 66895  53.1588  23.2549 0001124  63.6708  81.3669 15.72148891  4057
STARLINK-35791          
1 66896U 25283U   25356.83335647 -.01951672  00000+0 -16422-1 0  9993
2 66896  53.1588  23.2594 0000934  87.2797  55.8388 15.72146718  4056
STARLINK-36079          
1 66897U 25283V   25356.83335647 -.01948976  00000+0 -16395-1 0  9996
2 66897  53.1588  23.2520 0001383  74.3020  72.6511 15.72143208  4057
STARLINK-36065          
1 66898U 25283W   25356.83335647 -.01958931  00000+0 -16485-1 0  9999
2 66898  53.1589  23.2475 0001388  81.0847  67.7839 15.72149720  4058
STARLINK-36064          
1 66899U 25283X   25356.83335647 -.01984351  00000+0 -16725-1 0  9992
2 66899  53.1589  23.2433 0001310  80.4235  70.3805 15.72153559  3992
STARLINK-36074          
1 66900U 25283Y   25356.83335647 -.01953627  00000+0 -16439-1 0  9999
2 66900  53.1589  23.2393 0001133  61.7541  90.9480 15.72146443  4054
STARLINK-36043          
1 66901U 25283Z   25356.83335647 -.01943219  00000+0 -16347-1 0  9994
2 66901  53.1588  23.2350 0001115  75.8181  78.8094 15.72136748  4056
STARLINK-35983          
1 66902U 25283AA  25356.83335647 -.01956760  00000+0 -16465-1 0  9991
2 66902  53.1587  23.2308 0001403  78.8294  77.7063 15.72148740  4056
STARLINK-36077          
1 66903U 25283AB  25356.83335647 -.01956505  00000+0 -16465-1 0  9999
2 66903  53.1589  23.2274 0001237  70.1707  88.2835 15.72147537  4057
STARLINK-36059          
1 66904U 25283AC  25356.83335647 -.01946880  00000+0 -16379-1 0  9999
2 66904  53.1589  23.2229 0001135  63.7098  96.6634 15.72140365  4058
STARLINK-36075          
1 66905U 25283AD  25356.83335647 -.01950185  00000+0 -16407-1 0  9995
2 66905  53.1589  23.2190 0001365  76.7010  85.5882 15.72143125  4058
1998-067XS              
1 66906U 98067XS  25356.45959424  .00030106  00000+0  51362-3 0  9999
2 66906  51.6319  94.1970 0002895 250.8689 109.1987 15.51071617  3121
1998-067XT              
1 66907U 98067XT  25356.32051957  .00069527  00000+0  11084-2 0  9995
2 66907  51.6311  94.7687 0003842 286.1212  73.9355 15.52583192  3104
1998-067XU              
1 66908U 98067XU  25356.51269145  .00063598  00000+0  10108-2 0  9995
2 66908  51.6310  93.8007 0003871 283.9304  76.1255 15.52707663  3137
SILVERSAT               
1 66909U 98067XV  25356.51144008  .00071888  00000+0  11325-2 0  9999
2 66909  51.6306  93.7929 0003866 288.2093  71.8476 15.52898333  3134
1998-067XW              
1 66910U 98067XW  25356.50967983  .00065266  00000+0  10313-2 0  9994
2 66910  51.6304  93.7808 0003988 260.6768  99.3771 15.52855241  3132
1998-067XX              
1 66911U 98067XX  25356.50666611  .00074426  00000+0  11547-2 0  9997
2 66911  51.6305  93.7603 0003725 265.4438  94.6127 15.53307333  3120
1998-067XY              
1 66912U 98067XY  25356.58173682  .00053250  00000+0  86868-3 0  9998
2 66912  51.6324  93.5129 0003912 278.0711  81.9835 15.52056622  3132
2025-284A               
1 66913U 25284A   25356.51066132  .00008368  00000+0  52878-3 0  9998
2 66913  80.4036 117.4787 0013523 261.7581  98.2108 15.08882846  2603
2025-284B               
1 66914U 25284B   25350.28554881  .00008068  00000+0  38445-3 0  9991
2 66914  80.4045 125.2713 0008179 234.9626 125.0834 15.18985981  1668
HULIANWANG DIGUI-105    
1 66915U 25285A   25356.88309830  .00000032  00000+0  11586-3 0  9997
2 66915  50.0052  75.9681 0008082 316.6055  43.4213 14.03718906  2335
HULIANWANG DIGUI-106    
1 66916U 25285B   25356.59545133  .00000041  00000+0  12182-3 0  9997
2 66916  50.0062  77.1142 0006848 308.9367  51.0926 14.03703715  2294
HULIANWANG DIGUI-107    
1 66917U 25285C   25356.87843625  .00000032  00000+0  11620-3 0  9992
2 66917  50.0039  75.9380 0007509 319.3296  40.7047 14.03663858  2338
HULIANWANG DIGUI-108    
1 66918U 25285D   25356.87775021  .00000032  00000+0  11592-3 0  9995
2 66918  50.0061  75.9387 0006659 313.9566  46.0788 14.03602854  2336
HULIANWANG DIGUI-109    
1 66919U 25285E   25356.87614795  .00000043  00000+0  12263-3 0  9994
2 66919  50.0084  75.9354 0007910 326.2524  33.7876 14.03727073  2330
HULIANWANG DIGUI-110    
1 66920U 25285F   25356.87535410  .00000026  00000+0  11215-3 0  9999
2 66920  50.0119  75.9378 0005606 323.3721  36.6800 14.03683246  2336
HULIANWANG DIGUI-111    
1 66921U 25285G   25356.87454356  .00000029  00000+0  11422-3 0  9992
2 66921  50.0123  75.9369 0006690 327.1612  32.8876 14.03632788  2333
HULIANWANG DIGUI-112    
1 66922U 25285H   25356.87348372  .00000041  00000+0  12161-3 0  9998
2 66922  50.0095  75.9238 0006511 337.8446  22.2177 14.03662770  2333
